*******************************************************************************
 Revised: July 31, 2013                  Sun                                 10

 PHYSICAL PROPERTIES (updated 2018-Aug-15):
  GM, km^3/s^2          = 132712440041.93938  Mass, 10^24 kg        = ~1988500
  Vol. mean radius, km  = 695700              Volume, 10^12 km^3    = 1412000
  Solar radius (IAU)    = 696000 km           Mean density, g/cm^3  = 1.408
  Radius (photosphere)  = 696500 km           Angular diam at 1 AU  = 1919.3"
  Photosphere temp., K  = 6600 (bottom)       Photosphere temp., K  = 4400(top)
  Photospheric depth    = ~500 km             Chromospheric depth   = ~2500 km
  Flatness, f           = 0.00005             Adopted sid. rot. per.= 25.38 d
  Surface gravity       =  274.0 m/s^2        Escape speed, km/s    =  617.7
  Pole (RA,DEC), deg.   = (286.13, 63.87)     Obliquity to ecliptic = 7.25 deg.
  Solar constant (1 AU) = 1367.6 W/m^2        Luminosity, 10^24 J/s = 382.8
  Mass-energy conv rate = 4.260 x 10^9 kg/s   Effective temp, K     = 5772
  Sunspot cycle         = 11.4 yr             Cycle 24 sunspot min. = 2008 A.D.

  Motion relative to nearby stars = apex : R.A.= 271 deg.; DEC.= +30 deg.
                                    speed: 19.4 km/s (0.0112 au/day)
  Motion relative to 2.73K BB/CBR = apex : l= 264.7 +- 0.8; b= 48.2 +- 0.5 deg.
                                    speed: 369 +-11 km/s
*******************************************************************************


*******************************************************************************
Ephemeris / WWW_USER Sat Jan 28 00:36:02 2023 Pasadena, USA      / Horizons    
*******************************************************************************
Target body name: Sun (10)                        {source: DE441}
Center body name: Earth (399)                     {source: DE441}
Center-site name: (user defined site below)
*******************************************************************************
Start time      : A.D. 2000-Jan-01 00:00:00.0000 UT      
Stop  time      : A.D. 2099-Dec-31 00:00:00.0000 UT      
Step-size       : 1440 minutes
*******************************************************************************
Target pole/equ : IAU_SUN                         {East-longitude positive}
Target radii    : 696000.0 x 696000.0 x 696000.0 k{Equator, meridian, pole}    
Center geodetic : 9.25000000,48.8000000,0.0000000 {E-lon(deg),Lat(deg),Alt(km)}
Center cylindric: 9.25000000,4209.19536,4775.9377 {E-lon(deg),Dxy(km),Dz(km)}
Center pole/equ : ITRF93                          {East-longitude positive}
Center radii    : 6378.1 x 6378.1 x 6356.8 km     {Equator, meridian, pole}    
Target primary  : Sun (R_eq= 696000.000) km
Vis. interferer : MOON (R_eq= 1737.400) km        {source: DE441}
Rel. light bend : Sun                             {source: DE441}
Rel. lght bnd GM: 1.3271E+11 km^3/s^2                                          
Atmos refraction: NO (AIRLESS)
RA format       : DEG
Time format     : BOTH
EOP file        : eop.230126.p230421                                           
EOP coverage    : DATA-BASED 1962-JAN-20 TO 2023-JAN-26. PREDICTS-> 2023-APR-20
Units conversion: 1 au= 149597870.700 km, c= 299792.458 km/s, 1 day= 86400.0 s 
Table cut-offs 1: Elevation (-90.0deg=NO ),Airmass (>38.000=NO), Daylight (NO )
Table cut-offs 2: Solar elongation (  0.0,180.0=NO ),Local Hour Angle( 0.0=NO )
Table cut-offs 3: RA/DEC angular rate (     0.0=NO )                           
*******************************************************************************
 Date__(UT)__HR:MN Date_________JDUT     R.A._(a-appar)_DEC.  L_Ap_Hour_Ang
***************************************************************************
$$SOE
 2002-Jun-21 00:00 2452446.500000000 Am   89.41930  23.43614  -11.410179634
 2002-Jun-22 00:00 2452447.500000000 Am   90.45913  23.43650  -11.413791110
 2002-Jun-23 00:00 2452448.500000000 Am   91.49874  23.42997  -11.417387242
 2002-Jun-24 00:00 2452449.500000000 Am   92.53806  23.41656  -11.420962669
 2002-Jun-25 00:00 2452450.500000000 Am   93.57699  23.39629  -11.424512135
 2002-Jun-26 00:00 2452451.500000000 Am   94.61545  23.36917  -11.428030414
 2002-Jun-27 00:00 2452452.500000000 Am   95.65336  23.33521  -11.431512230
 2002-Jun-28 00:00 2452453.500000000 Am   96.69062  23.29443  -11.434952234
 2002-Jun-29 00:00 2452454.500000000 Am   97.72717  23.24684  -11.438344990
 2002-Jun-30 00:00 2452455.500000000 Am   98.76291  23.19246  -11.441684968
 2002-Jul-01 00:00 2452456.500000000 Am   99.79777  23.13131  -11.444966560
 2002-Jul-02 00:00 2452457.500000000 Am  100.83166  23.06342  -11.448184095
 2002-Jul-03 00:00 2452458.500000000 Am  101.86451  22.98881  -11.451331844
 2002-Jul-04 00:00 2452459.500000000 Am  102.89622  22.90751  -11.454404027
 2002-Jul-05 00:00 2452460.500000000     103.92672  22.81955  -11.457394857
 2002-Jul-06 00:00 2452461.500000000     104.95592  22.72497  -11.460298516
 2002-Jul-07 00:00 2452462.500000000     105.98374  22.62381  -11.463109141
 2002-Jul-08 00:00 2452463.500000000     107.01009  22.51610  -11.465820821
 2002-Jul-09 00:00 2452464.500000000     108.03487  22.40190  -11.468427580
 2002-Jul-10 00:00 2452465.500000000     109.05800  22.28124  -11.470923382
 2002-Jul-11 00:00 2452466.500000000     110.07936  22.15418  -11.473302168
 2002-Jul-12 00:00 2452467.500000000     111.09888  22.02077  -11.475557954
 2002-Jul-13 00:00 2452468.500000000     112.11644  21.88106  -11.477684917
 2002-Jul-14 00:00 2452469.500000000     113.13197  21.73510  -11.479677528
 2002-Jul-15 00:00 2452470.500000000     114.14540  21.58294  -11.481530666
 2002-Jul-16 00:00 2452471.500000000     115.15666  21.42466  -11.483239718
 2002-Jul-17 00:00 2452472.500000000     116.16570  21.26030  -11.484800652
 2002-Jul-18 00:00 2452473.500000000     117.17248  21.08993  -11.486210026
 2002-Jul-19 00:00 2452474.500000000     118.17695  20.91361  -11.487464976
 2002-Jul-20 00:00 2452475.500000000  m  119.17908  20.73143  -11.488563146
 2002-Jul-21 00:00 2452476.500000000  m  120.17885  20.54344  -11.489502647
 2002-Jul-22 00:00 2452477.500000000  m  121.17622  20.34971  -11.490282007
 2002-Jul-23 00:00 2452478.500000000  m  122.17118  20.15033  -11.490900096
 2002-Jul-24 00:00 2452479.500000000  m  123.16369  19.94535  -11.491356053
 2002-Jul-25 00:00 2452480.500000000  m  124.15376  19.73484  -11.491649240
 2002-Jul-26 00:00 2452481.500000000  m  125.14136  19.51888  -11.491779208
 2002-Jul-27 00:00 2452482.500000000  m  126.12650  19.29753  -11.491745607
 2002-Jul-28 00:00 2452483.500000000  m  127.10917  19.07087  -11.491548189
 2002-Jul-29 00:00 2452484.500000000  m  128.08938  18.83896  -11.491186794
 2002-Jul-30 00:00 2452485.500000000  m  129.06712  18.60188  -11.490661326
 2002-Jul-31 00:00 2452486.500000000  m  130.04240  18.35970  -11.489971778
 2002-Aug-01 00:00 2452487.500000000  m  131.01523  18.11249  -11.489118239
 2002-Aug-02 00:00 2452488.500000000  m  131.98561  17.86034  -11.488100863
 2002-Aug-03 00:00 2452489.500000000  m  132.95354  17.60331  -11.486919881
 2002-Aug-04 00:00 2452490.500000000  m  133.91904  17.34150  -11.485575543
 2002-Aug-05 00:00 2452491.500000000  m  134.88210  17.07498  -11.484068107
 2002-Aug-06 00:00 2452492.500000000     135.84273  16.80383  -11.482397826
 2002-Aug-07 00:00 2452493.500000000     136.80091  16.52815  -11.480564868
 2002-Aug-08 00:00 2452494.500000000     137.75665  16.24801  -11.478569338
 2002-Aug-09 00:00 2452495.500000000     138.70994  15.96352  -11.476411298
 2002-Aug-10 00:00 2452496.500000000     139.66078  15.67475  -11.474090848
 2002-Aug-11 00:00 2452497.500000000     140.60917  15.38180  -11.471608238
 2002-Aug-12 00:00 2452498.500000000     141.55512  15.08474  -11.468964028
 2002-Aug-13 00:00 2452499.500000000     142.49866  14.78368  -11.466159188
 2002-Aug-14 00:00 2452500.500000000     143.43982  14.47871  -11.463195184
 2002-Aug-15 00:00 2452501.500000000     144.37864  14.16990  -11.460074033
 2002-Aug-16 00:00 2452502.500000000     145.31515  13.85737  -11.456798262
 2002-Aug-17 00:00 2452503.500000000     146.24941  13.54118  -11.453370865
 2002-Aug-18 00:00 2452504.500000000     147.18144  13.22145  -11.449795235
 2002-Aug-19 00:00 2452505.500000000  m  148.11131  12.89826  -11.446075102
 2002-Aug-20 00:00 2452506.500000000  m  149.03907  12.57168  -11.442214469
 2002-Aug-21 00:00 2452507.500000000  m  149.96478  12.24182  -11.438217576
 2002-Aug-22 00:00 2452508.500000000  m  150.88849  11.90876  -11.434088843
 2002-Aug-23 00:00 2452509.500000000  m  151.81029  11.57257  -11.429832811
 2002-Aug-24 00:00 2452510.500000000  m  152.73023  11.23335  -11.425454106
 2002-Aug-25 00:00 2452511.500000000  m  153.64840  10.89116  -11.420957441
 2002-Aug-26 00:00 2452512.500000000  m  154.56486  10.54611  -11.416347564
 2002-Aug-27 00:00 2452513.500000000  m  155.47970  10.19825  -11.411629254
 2002-Aug-28 00:00 2452514.500000000  m  156.39298   9.84769  -11.406807298
 2002-Aug-29 00:00 2452515.500000000  m  157.30480   9.49450  -11.401886474
 2002-Aug-30 00:00 2452516.500000000  m  158.21521   9.13877  -11.396871568
 2002-Aug-31 00:00 2452517.500000000  m  159.12429   8.78058  -11.391767338
 2002-Sep-01 00:00 2452518.500000000  m  160.03211   8.42002  -11.386578508
 2002-Sep-02 00:00 2452519.500000000  m  160.93875   8.05718  -11.381309727
 2002-Sep-03 00:00 2452520.500000000  m  161.84425   7.69215  -11.375965526
 2002-Sep-04 00:00 2452521.500000000     162.74869   7.32502  -11.370550291
 2002-Sep-05 00:00 2452522.500000000     163.65212   6.95588  -11.365068219
 2002-Sep-06 00:00 2452523.500000000     164.55458   6.58484  -11.359523273
 2002-Sep-07 00:00 2452524.500000000     165.45614   6.21198  -11.353919248
 2002-Sep-08 00:00 2452525.500000000     166.35686   5.83740  -11.348259821
 2002-Sep-09 00:00 2452526.500000000     167.25680   5.46121  -11.342548691
 2002-Sep-10 00:00 2452527.500000000     168.15602   5.08348  -11.336789703
